[{"OBJECT_NAME":"STARLINK-34664","OBJECT_ID":"2025-150S","EPOCH":"2026-03-09T13:41:07.765728","MEAN_MOTION":14.9832459,"ECCENTRICITY":0.0003007,"INCLINATION":70.002,"RA_OF_ASC_NODE":134.5662,"ARG_OF_PERICENTER":266.07,"MEAN_ANOMALY":94.0115,"EPHEMERIS_TYPE":0,"CLASSIFICATION_TYPE":"U","NORAD_CAT_ID":64806,"ELEMENT_SET_NO":999,"REV_AT_EPOCH":3650,"BSTAR":1.2287e-5,"MEAN_MOTION_DOT":5.4e-7,"MEAN_MOTION_DDOT":0},{"OBJECT_NAME":"IRIDIUM 33 DEB","OBJECT_ID":"1997-051GB","EPOCH":"2026-03-09T18:44:19.060224","MEAN_MOTION":15.02189476,"ECCENTRICITY":0.0010038,"INCLINATION":86.3931,"RA_OF_ASC_NODE":331.664,"ARG_OF_PERICENTER":138.3098,"MEAN_ANOMALY":291.9123,"EPHEMERIS_TYPE":0,"CLASSIFICATION_TYPE":"U","NORAD_CAT_ID":34486,"ELEMENT_SET_NO":999,"REV_AT_EPOCH":90290,"BSTAR":0.0023709806,"MEAN_MOTION_DOT":0.00031372,"MEAN_MOTION_DDOT":0}]
